FENGYUN 1C DEB
1 29818U 99025DL  22103.72612122  .00000164  00000-0  12490-3 0  9994
2 29818  98.8638   7.6109 0116597 170.6704 254.1411 14.03062325780244
FENGYUN 1C DEB
1 29819U 99025DM  22104.04859858 -.00000121  00000-0 -45754-4 0  9995
2 29819  98.7464 131.8879 0190719 205.6611 210.0879 14.00280508778810
FENGYUN 1C DEB
1 29820U 99025DN  22104.06569074  .00000333  00000-0  25221-3 0  9996
2 29820  98.9272 133.3111 0064764 351.6598  62.7179 13.99805056778197
FENGYUN 1C DEB
1 29821U 99025DP  22104.13328965  .00001244  00000-0  41963-3 0  9990
2 29821  99.0272 155.7335 0411416 266.7660 147.7528 14.00384778777188
FENGYUN 1C DEB
1 29825U 99025DT  22103.45878190  .00020368  00000-0  94563-3 0  9990
2 29825  98.7266   5.0547 0097128 135.2695 225.6420 15.15880201826856
FENGYUN 1C DEB
1 29827U 99025DV  22103.80106711  .00000409  00000-0  21674-3 0  9991
2 29827  98.5779 119.7613 0025599 230.8908 304.8840 14.18762135788607
FENGYUN 1C DEB
1 29828U 99025DW  22103.68128828  .00000768  00000-0  51170-3 0  9993
2 29828  98.8935 167.3426 0061478 307.5786 182.1012 14.03259811779286
FENGYUN 1C DEB
1 29832U 99025EA  22103.86559187  .00000717  00000-0  14366-3 0  9994
2 29832  98.9206 120.8361 0203499  29.0458 332.1879 14.53079706807927
FENGYUN 1C DEB
1 29833U 99025EB  22103.42422732  .00003720  00000-0  64910-3 0  9999
2 29833  99.1054 275.3313 0152549  90.8200 271.0480 14.61309303808901
FENGYUN 1C DEB
1 29834U 99025EC  22103.96081747  .00080083  00000-0  26250-2 0  9997
2 29834  98.2859 244.2781 0063349 303.3295  56.1887 15.29370280819254
FENGYUN 1C DEB
1 29835U 99025ED  22103.88945214  .00000149  00000-0  53019-4 0  9997
2 29835  99.0791 139.6501 0172281  42.9422 131.9232 14.41675990801942
FENGYUN 1C DEB
1 29836U 99025EE  22103.57973463  .00000816  00000-0  20573-3 0  9990
2 29836  98.1246 225.9856 0176985 350.3635  70.5408 14.44785399441656
FENGYUN 1C DEB
1 29840U 99025EJ  22103.83879977  .00016823  00000-0  21882-2 0  9997
2 29840  99.0045 243.7265 0087635 113.0437 248.0041 14.78046391809143
FENGYUN 1C DEB
1 29841U 99025EK  22104.19857715  .00000894  00000-0  22705-3 0  9991
2 29841  98.8211 353.0263 0218795   9.6447 141.3229 14.40152886800334
FENGYUN 1C DEB
1 29842U 99025EL  22103.88050775  .00001629  00000-0  44507-3 0  9999
2 29842  98.6951 143.7580 0140293 265.1893 268.8940 14.43113902799534
FENGYUN 1C DEB
1 29843U 99025EM  22103.90555720  .00000795  00000-0  29333-3 0  9996
2 29843  98.9486 245.3252 0202797 195.2304 323.0922 14.24718980791941
FENGYUN 1C DEB
1 29844U 99025EN  22103.80975862  .00000896  00000-0  33161-3 0  9995
2 29844  99.0838 305.3237 0183239  86.6931 275.5190 14.26068028792248
FENGYUN 1C DEB
1 29845U 99025EP  22104.05537118  .00000589  00000-0  27507-3 0  9998
2 29845  98.5578 128.2809 0083992  73.5220 341.5698 14.22090699790613
FENGYUN 1C DEB
1 29846U 99025EQ  22103.86962954  .00000157  00000-0  94909-4 0  9999
2 29846  98.8374 148.3011 0086183 186.4241 348.9210 14.17881826788792
FENGYUN 1C DEB
1 29847U 99025ER  22103.77983275  .00000635  00000-0  43325-3 0  9995
2 29847  98.8873 116.8213 0086402 166.8603   8.3747 14.01599281779706
FENGYUN 1C DEB
1 29848U 99025ES  22103.80479177  .00001295  00000-0  69790-3 0  9998
2 29848  98.2970  48.4995 0134191 203.5346 211.1856 14.09819587781887
FENGYUN 1C DEB
1 29849U 99025ET  22104.17044273  .00001562  00000-0  10789-2 0  9995
2 29849  99.0577 186.1967 0094162 149.1197 274.1134 13.98504002776298
FENGYUN 1C DEB
1 29850U 99025EU  22104.18418705  .00000858  00000-0  65250-3 0  9994
2 29850  98.1110 176.1041 0112103  98.8942 281.4586 13.93019317773518
FENGYUN 1C DEB
1 29851U 99025EV  22104.21440285  .00000231  00000-0  23801-3 0  9998
2 29851  99.6503  97.3917 0145562 148.9693 226.4914 13.82055982768796
FENGYUN 1C DEB
1 29852U 99025EW  22103.88353126  .00001421  00000-0  10022-2 0  9990
2 29852  99.3101  68.9175 0154326 207.3611 224.3472 13.94163637772540
FENGYUN 1C DEB
1 29853U 99025EX  22103.56103638  .00000934  00000-0  73021-3 0  9994
2 29853  98.4325 334.4776 0171200 328.4727  30.6262 13.87803326770608
FENGYUN 1C DEB
1 29854U 99025EY  22103.85650760  .00000212  00000-0  21640-3 0  9999
2 29854  98.9465 321.1049 0150322  54.1989  11.3950 13.81760566768441
FENGYUN 1C DEB
1 29855U 99025EZ  22103.78290250  .00002011  00000-0  13791-2 0  9992
2 29855  98.1820 181.6923 0215072 204.8690 281.4522 13.89972518770477
FENGYUN 1C DEB
1 29856U 99025FA  22103.83894765  .00006630  00000-0  19421-2 0  9997
2 29856  98.7532 194.5458 0416249 212.3486 279.2067 14.03943353773559
FENGYUN 1C DEB
1 29857U 99025FB  22103.85159279  .00001332  00000-0  12240-2 0  9990
2 29857  98.4641 238.3045 0203781 321.3878  37.2849 13.75479641763302
FENGYUN 1C DEB
1 29858U 99025FC  22103.87596122  .00000941  00000-0  93451-3 0  9994
2 29858  99.1534 239.4035 0208662 348.7485 162.6574 13.71596815761746
FENGYUN 1C DEB
1 29859U 99025FD  22103.90131366  .00001301  00000-0  11715-2 0  9997
2 29859  98.3550  96.1565 0319669 194.4234 164.7624 13.64716303756628
FENGYUN 1C DEB
1 29860U 99025FE  22103.38123619  .00001928  00000-0  19120-2 0  9996
2 29860  98.6228 253.9938 0242011 316.5112  95.5061 13.67297499757732
FENGYUN 1C DEB
1 29865U 99025FK  22104.27762591  .00001612  00000-0  27482-3 0  9999
2 29865  98.9250 225.8447 0159585 340.8999  76.9327 14.62645518810838
FENGYUN 1C DEB
1 29866U 99025FL  22103.54606361  .00001616  00000-0  27675-3 0  9999
2 29866  97.9944 121.0025 0222690  90.6047  60.7947 14.55102817808062
FENGYUN 1C DEB
1 29868U 99025FN  22103.68452253  .00002005  00000-0  28650-3 0  9992
2 29868  98.1338 159.2649 0261338 282.2024 204.8741 14.57206924806769
FENGYUN 1C DEB
1 29869U 99025FP  22104.20039399  .00000561  00000-0  21477-3 0  9999
2 29869  98.9460 341.4887 0092385 339.0685 134.3442 14.32428335796365
FENGYUN 1C DEB
1 29870U 99025FQ  22103.97513685  .00000057  00000-0  36538-4 0  9994
2 29870  98.3418 110.4146 0121563 180.9189 234.1203 14.28151065794842
FENGYUN 1C DEB
1 29871U 99025FR  22104.19780333  .00001173  00000-0  44381-3 0  9990
2 29871  98.9754 350.6146 0070681  79.6126  47.3517 14.31815441794996
FENGYUN 1C DEB
1 29872U 99025FS  22103.55553717  .00001157  00000-0  32069-3 0  9996
2 29872  98.4637 140.0140 0260813 341.8879  17.3142 14.30469866793988
FENGYUN 1C DEB
1 29873U 99025FT  22103.89010223  .00000398  00000-0  31274-3 0  9997
2 29873  99.4661 265.7633 0093950 223.8674 295.9449 13.96116133776204
FENGYUN 1C DEB
1 29874U 99025FU  22103.83925716  .00002542  00000-0  14024-2 0  9990
2 29874  98.3816  60.7765 0136019 262.4693 152.6395 14.07730811778937
FENGYUN 1C DEB
1 29875U 99025FV  22103.77205980  .00000046  00000-0  36982-4 0  9994
2 29875  98.5627 182.9946 0082948  14.7642 103.8005 14.24365579792588
FENGYUN 1C DEB
1 29876U 99025FW  22103.56572218  .00000197  00000-0  11240-3 0  9999
2 29876  98.4321 206.1372 0061479 305.6636  66.5492 14.18870919789181
FENGYUN 1C DEB
1 29877U 99025FX  22103.87609264  .00000654  00000-0  32026-3 0  9999
2 29877  98.6022 131.4294 0050086 147.0159 337.7016 14.20535149789401
FENGYUN 1C DEB
1 29878U 99025FY  22103.53601740  .00004446  00000-0  14604-2 0  9998
2 29878  96.9818 116.4883 0125195 128.0379 233.2188 14.34256493791578
FENGYUN 1C DEB
1 29880U 99025GA  22103.75776012  .00001222  00000-0  84846-3 0  9995
2 29880  98.1760 169.0325 0250487 230.1894 252.7309 13.86483526769667
FENGYUN 1C DEB
1 29881U 99025GB  22103.80782002  .00001203  00000-0  13820-2 0  9990
2 29881  98.7407 211.3191 0304456 300.6439 212.6100 13.53291818750870
FENGYUN 1C DEB
1 29884U 99025GE  22104.20029257  .00001043  00000-0  41771-3 0  9993
2 29884  99.5944 336.3956 0053116  19.8500 104.2520 14.30038386793736
FENGYUN 1C DEB
1 29885U 99025GF  22103.86711897  .00000223  00000-0  13240-3 0  9992
2 29885  98.2347 123.5070 0121659  64.8727  57.4715 14.12198150785644
FENGYUN 1C DEB
1 29886U 99025GG  22103.95382266  .00005655  00000-0  18058-2 0  9992
2 29886  99.2354  98.9640 0036327 130.5366 284.4166 14.39731789793213
FENGYUN 1C DEB
1 29887U 99025GH  22103.72136491  .00001071  00000-0  29600-3 0  9999
2 29887  98.8572 161.2908 0323812 301.6669 176.1315 14.22468012788740
FENGYUN 1C DEB
1 29888U 99025GJ  22103.88294190  .00001382  00000-0  50367-3 0  9997
2 29888  99.0812 240.4390 0293709 213.7777 144.4376 14.13605630785516
FENGYUN 1C DEB
1 29889U 99025GK  22103.59583105  .00000459  00000-0  25238-3 0  9996
2 29889  99.5638 126.4924 0159857 154.9779 328.0616 14.10692327784227
FENGYUN 1C DEB
1 29890U 99025GL  22103.62664315  .00000854  00000-0  46744-3 0  9999
2 29890  99.5328 118.5732 0018173 227.5591 132.4043 14.14859142784706
FENGYUN 1C DEB
1 29891U 99025GM  22103.76812184  .00000060  00000-0  70155-4 0  9997
2 29891  98.8231 148.3858 0065482  22.3439 101.7145 13.98166379777673
FENGYUN 1C DEB
1 29892U 99025GN  22104.21327295  .00002222  00000-0  10160-2 0  9993
2 29892  99.1577 196.6693 0271054 116.9472 299.8929 14.04834464777242
FENGYUN 1C DEB
1 29893U 99025GP  22103.54578385  .00000132  00000-0  14897-3 0  9997
2 29893  98.4825 321.0735 0174468 180.2954 246.4141 13.78552400766836
FENGYUN 1C DEB
1 29894U 99025GQ  22103.82954728  .00000411  00000-0  40532-3 0  9993
2 29894  99.6251 129.0539 0171575 319.0194 214.4312 13.78550368766145
FENGYUN 1C DEB
1 29895U 99025GR  22103.87640858  .00004422  00000-0  21562-2 0  9992
2 29895  99.9349  88.8248 0364406 325.6652  98.0013 13.89244247768295
FENGYUN 1C DEB
1 29896U 99025GS  22103.67666396  .00000296  00000-0  35565-3 0  9990
2 29896  99.5116  12.3558 0243724 297.3040 122.6474 13.63276940757846
FENGYUN 1C DEB
1 29897U 99025GT  22103.51023459  .00001453  00000-0  17324-2 0  9999
2 29897  98.6198 121.3785 0317595 359.3654 153.9282 13.49333458748316
FENGYUN 1C DEB
1 29898U 99025GU  22104.00547884  .00003166  00000-0  22506-2 0  9999
2 29898  98.2132 285.1596 0478854 146.7401   4.0127 13.54279330749560
